DMSP 5D-3 F16 (USA 172) 
1 28054U 03048A   26194.19855420 -.00000057  00000+0 -62705-5 0  9998
2 28054  98.9896 218.1981 0008114  76.1304 359.8951 14.14484873173167
METEOSAT-9 (MSG-2)      
1 28912U 05049B   26193.71456483  .00000116  00000+0  00000+0 0  9995
2 28912   9.4169  53.9114 0002069 356.4879 183.1097  1.00270809  7255
DMSP 5D-3 F17 (USA 191) 
1 29522U 06050A   26194.19141748 -.00000015  00000+0  14800-4 0  9991
2 29522  98.7386 200.2300 0009827 348.7662  11.3291 14.14996131 16106
FENGYUN 3A              
1 32958U 08026A   26193.84425698  .00000011  00000+0  25925-4 0  9998
2 32958  98.6887 134.1982 0009723  57.9343 302.2776 14.19576196939046
GOES 14                 
1 35491U 09033A   26193.94444853 -.00000359  00000+0  00000+0 0  9995
2 35491   1.7536  82.7217 0001865  40.6532 273.9278  1.00099170  6846
DMSP 5D-3 F18 (USA 210) 
1 35951U 09057A   26194.16444062  .00000161  00000+0  10636-3 0  9999
2 35951  98.9055 174.8792 0011107 171.1585 188.9786 14.14910810863268
EWS-G2 (GOES 15)        
1 36411U 10008A   26193.89142228  .00000020  00000+0  00000+0 0  9991
2 36411   1.3455  82.4942 0005187  53.7092 178.8248  1.00268270 59896
COMS 1                  
1 36744U 10032A   26194.22912240 -.00000255  00000+0  00000+0 0  9995
2 36744   4.8696  75.0414 0011248  14.7012 253.7223  0.99168422 51349
FENGYUN 3B              
1 37214U 10059A   26194.19221074  .00000111  00000+0  80675-4 0  9992
2 37214  98.9615 240.3150 0023112 112.0908 336.8230 14.14847471811109
SUOMI NPP               
1 37849U 11061A   26194.20888397  .00000004  00000+0  22827-4 0  9995
2 37849  98.7956 134.9079 0000662 226.2460 133.8661 14.19522350762135
METEOSAT-10 (MSG-3)     
1 38552U 12035B   26193.91940853 -.00000012  00000+0  00000+0 0  9996
2 38552   4.7302  60.8907 0001085  17.4311 183.5237  1.00270327 51111
METOP-B                 
1 38771U 12049A   26194.16385209  .00000050  00000+0  42897-4 0  9996
2 38771  98.6491 245.1430 0001067 267.9479  92.1576 14.21446026716950
INSAT-3D                
1 39216U 13038B   26193.94505521 -.00000342  00000+0  00000+0 0  9996
2 39216   1.9900  82.2154 0000506  86.6188 231.7309  1.00269470 47333
FENGYUN 3C              
1 39260U 13052A   26194.19295324  .00000020  00000+0  31208-4 0  9997
2 39260  98.4997 166.8760 0013760 312.1449  47.8556 14.15760465662247
METEOR-M 2              
1 40069U 14037A   26194.18984300  .00000394  00000+0  19925-3 0  9993
2 40069  98.5123 169.0092 0005287 333.5929  26.4978 14.21470217623019
HIMAWARI-8              
1 40267U 14060A   26193.94722189 -.00000277  00000+0  00000+0 0  9998
2 40267   0.0174 317.8626 0001046 212.1824 242.4521  1.00272162 43016
FENGYUN 2G              
1 40367U 14090A   26193.94955580 -.00000305  00000+0  00000+0 0  9997
2 40367   5.7004  72.5001 0004400 152.4058 147.0300  1.00261040 42258
METEOSAT-11 (MSG-4)     
1 40732U 15034A   26194.13510722  .00000056  00000+0  00000+0 0  9991
2 40732   3.2642  70.9471 0002217 353.6107 284.3453  1.00271218  7479
ELEKTRO-L 2             
1 41105U 15074A   26193.98778307 -.00000125  00000+0  00000+0 0  9995
2 41105   6.7552  70.2019 0000943 215.4440 346.3207  1.00272232 38761
SENTINEL-3A             
1 41335U 16011A   26194.16461399  .00000050  00000+0  38502-4 0  9992
2 41335  98.6238 261.1736 0001367  90.8487 269.2850 14.26739438541765
INSAT-3DR               
1 41752U 16054A   26194.19087578 -.00000079  00000+0  00000+0 0  9997
2 41752   0.0647  88.7637 0010627 181.1898 163.8347  1.00270603 36076
HIMAWARI-9              
1 41836U 16064A   26193.94730854 -.00000276  00000+0  00000+0 0  9994
2 41836   0.0068 109.6603 0002190  67.6348 235.3168  1.00271956 35466
GOES 16                 
1 41866U 16071A   26194.13537329 -.00000093  00000+0  00000+0 0  9996
2 41866   0.3985  85.4937 0000527  99.2317  50.3343  1.00270878 35361
FENGYUN 4A              
1 41882U 16077A   26194.22905956 -.00000362  00000+0  00000+0 0  9994
2 41882   2.3852  79.9854 0008485 159.3423 258.0089  1.00269187 35193
CYGFM05                 
1 41884U 16078A   26194.07897494  .00018762  00000+0  24403-3 0  9996
2 41884  34.9569  88.9898 0006316  15.7870 344.3051 15.57789099532793
CYGFM04                 
1 41885U 16078B   26194.03018829  .00024628  00000+0  26201-3 0  9996
2 41885  34.9326  55.6613 0004454  59.1266 300.9897 15.62986296533042
CYGFM02                 
1 41886U 16078C   26193.97930867  .00030539  00000+0  28498-3 0  9992
2 41886  34.9408  49.7493 0005165  62.8407 297.2847 15.66243544533210
CYGFM01                 
1 41887U 16078D   26194.12013117  .00017581  00000+0  22263-3 0  9997
2 41887  34.9398  89.5590 0006361   9.5607 350.5238 15.58504304532758
CYGFM08                 
1 41888U 16078E   26194.03363925  .00022901  00000+0  25945-3 0  9995
2 41888  34.9434  69.0074 0006486  45.5670 314.5586 15.61371843533018
CYGFM07                 
1 41890U 16078G   26193.99110163  .00022787  00000+0  25722-3 0  9991
2 41890  34.9450  57.6102 0004834  59.8500 300.2704 15.61478548533035
CYGFM03                 
1 41891U 16078H   26194.02620976  .00022558  00000+0  25476-3 0  9997
2 41891  34.9406  59.3057 0004820  42.9005 317.2096 15.61466681533018
